[{"OBJECT_NAME":"ONEWEB-0402","OBJECT_ID":"2021-132P","EPOCH":"2026-03-09T18:29:35.094048","MEAN_MOTION":13.18684019,"ECCENTRICITY":0.00014134,"INCLINATION":87.925,"RA_OF_ASC_NODE":355.1744,"ARG_OF_PERICENTER":92.6956,"MEAN_ANOMALY":267.4338,"EPHEMERIS_TYPE":0,"CLASSIFICATION_TYPE":"U","NORAD_CAT_ID":50482,"ELEMENT_SET_NO":999,"REV_AT_EPOCH":20853,"BSTAR":-6.668032e-6,"MEAN_MOTION_DOT":1.0e-7,"MEAN_MOTION_DDOT":0},{"OBJECT_NAME":"THOR ABLESTAR DEB","OBJECT_ID":"1961-015GZ","EPOCH":"2026-03-09T22:21:37.506240","MEAN_MOTION":13.59537467,"ECCENTRICITY":0.02061167,"INCLINATION":65.8715,"RA_OF_ASC_NODE":269.4748,"ARG_OF_PERICENTER":272.8274,"MEAN_ANOMALY":200.5049,"EPHEMERIS_TYPE":0,"CLASSIFICATION_TYPE":"U","NORAD_CAT_ID":648,"ELEMENT_SET_NO":999,"REV_AT_EPOCH":18548,"BSTAR":0.00052829081,"MEAN_MOTION_DOT":3.73e-6,"MEAN_MOTION_DDOT":0}]
